OPTICUBE 04             
1 41851U 16067D   19213.86830525 -.00000035  00000-0  22378-5 0  9998
2 41851  97.9175 312.0171 0007953 232.7974 127.2521 14.96812893148523
AEROCUBE 8D             
1 41852U 16067E   19214.20794538  .00000230  00000-0  25470-4 0  9992
2 41852  97.9187 312.1859 0008696 231.0418 129.0029 14.96728071148551
AEROCUBE 8C             
1 41853U 16067F   19214.16506883  .00000467  00000-0  46199-4 0  9995
2 41853  97.9195 312.0753 0008611 232.2691 127.7750 14.96698747148547
PROMETHEUS 2-1          
1 41854U 16067G   19214.86116937 -.00000104  00000-0 -37040-5 0  9996
2 41854  97.9194 312.9347 0009394 231.1607 128.8776 14.96918870148653
PROMETHEUS 2-3          
1 41855U 16067H   19213.86068106 -.00000128  00000-0 -58498-5 0  9996
2 41855  97.9197 311.9392 0009515 235.3406 124.6919 14.96923537148507
INS-1B                  
1 41954U 17008G   19214.14439153  .00000683  00000-0  31095-4 0  9995
2 41954  97.3972 278.5986 0008991   0.4877 359.6368 15.24014636136574
BGUSAT                  
1 41999U 17008BD  19214.78610178  .00001195  00000-0  48935-4 0  9992
2 41999  97.4048 281.7920 0008231  13.3180 346.8275 15.26226033136178
DIDO-2                  
1 42000U 17008BE  19213.74123750  .00000556  00000-0  25920-4 0  9995
2 42000  97.3985 278.7507 0008957  20.9098 339.2504 15.23944565135911
PEASSS                  
1 42015U 17008BV  19213.74265887  .00000712  00000-0  31482-4 0  9993
2 42015  97.3995 279.7769 0007021  29.1514 331.0114 15.24921013136466
AL-FARABI 1             
1 42016U 17008BW  19213.72303263  .00000893  00000-0  37999-4 0  9992
2 42016  97.4010 280.3490 0006810  28.7265 331.4347 15.25570461136615
NAYIF-1 (EO-88)         
1 42017U 17008BX  19213.70958317  .00000901  00000-0  38271-4 0  9991
2 42017  97.4007 280.3460 0006813  29.1587 331.0030 15.25604159136633
ALTAIR PATHFINDER       
1 42711U 98067LS  19214.56908243  .00036156  00000-0  16410-3 0  9995
2 42711  51.6329  56.5382 0001509 294.5572  65.5274 15.83527500126195
NSIGHT                  
1 42726U 98067MF  19214.08229602  .00015977  00000-0  12032-3 0  9997
2 42726  51.6357  81.4202 0003851 352.6151   7.4790 15.72705242124804
UCLSAT                  
1 42765U 17036A   19213.69564082  .00000711  00000-0  33327-4 0  9998
2 42765  97.3481 270.7593 0013215  77.6275 282.6440 15.22800786117168
LITUANICASAT-2          
1 42768U 17036D   19214.72383415  .00001222  00000-0  54942-4 0  9999
2 42768  97.3516 271.3921 0016655  65.3368 294.9601 15.22897955117169
AALTO-1                 
1 42775U 17036L   19213.73047638  .00000482  00000-0  24490-4 0  9993
2 42775  97.3464 269.4400 0015601  68.8555 291.4346 15.21377746116904
URSA MAIOR              
1 42776U 17036M   19214.73963173  .00000506  00000-0  25467-4 0  9998
2 42776  97.3473 270.5871 0015371  65.6847 294.5992 15.21514629117065
COMPASS 2               
1 42777U 17036N   19214.73948181  .00000958  00000-0  43662-4 0  9999
2 42777  97.3514 271.8718 0014128  66.8249 293.4475 15.22974004117123
DIAMOND RED             
1 42783U 17036U   19214.15111091  .00000592  00000-0  28694-4 0  9996
2 42783  97.3480 270.7706 0013878  77.0651 283.2135 15.22250250117017
PEGASUS                 
1 42784U 17036V   19214.31877656  .00000671  00000-0  31826-4 0  9990
2 42784  97.3484 271.1753 0013745  76.1159 284.1606 15.22548615117057
DIAMOND GREEN           
1 42785U 17036W   19214.14989759  .00000589  00000-0  28550-4 0  9998
2 42785  97.3482 270.7948 0013782  77.6140 282.6638 15.22250363117007
DIAMOND BLUE            
1 42786U 17036X   19214.14906609  .00000587  00000-0  28482-4 0  9994
2 42786  97.3482 270.7919 0013625  77.9167 282.3595 15.22248174117011
NUDTSAT                 
1 42787U 17036Y   19214.81364536  .00001068  00000-0  47523-4 0  9998
2 42787  97.3513 272.4108 0013101  65.6420 294.6177 15.23540490117010
SUCHAI                  
1 42788U 17036Z   19213.72230081  .00000865  00000-0  39689-4 0  9993
2 42788  97.3490 270.9207 0013329  77.2954 282.9772 15.22973062117050
SKCUBE                  
1 42789U 17036AA  19213.74099384  .00000776  00000-0  36032-4 0  9995
2 42789  97.3485 270.8733 0013193  77.3282 282.9429 15.22868851116970
VZLUSAT-1               
1 42790U 17036AB  19213.74968410  .00001040  00000-0  46406-4 0  9993
2 42790  97.3501 271.3714 0012758  76.5963 283.6695 15.23532630117001
ROBUSTA-1B              
1 42792U 17036AD  19214.38974088  .00000789  00000-0  36426-4 0  9994
2 42792  97.3486 271.6668 0012762  76.0579 284.2076 15.23039020117093
CICERO 6                
1 42793U 17036AE  19214.13286310  .00000509  00000-0  24839-4 0  9997
2 42793  97.3468 271.1658 0012023  78.4107 281.8479 15.22619320117110
D-SAT                   
1 42794U 17036AF  19213.69500119  .00000043  00000-0  92610-5 0  9990
2 42794  97.5364 256.4531 0126353 355.7441   4.2692 14.91113271114893
CORVUS BC2              
1 42846U 17042X   19214.74793468 -.00000089  00000-0 -34840-5 0  9996
2 42846  97.5604 106.9429 0008012 264.5215  95.5091 14.91985235111733
CORVUS BC1              
1 42847U 17042Y   19214.29577996  .00000023  00000-0  75364-5 0  9995
2 42847  97.5607 106.6227 0007646 265.6709  94.3637 14.92085174111661
MIRATA                  
1 43015U 17073C   19214.33674683  .00000909  00000-0  76031-4 0  9997
2 43015  97.7179 133.8098 0255783  12.6596 348.0879 14.79039075 91897
MAKERSAT 0              
1 43016U 17073D   19213.74943049  .00000701  00000-0  59756-4 0  9992
2 43016  97.7212 133.4468 0257994  14.9832 345.8841 14.78776232 91792
ASTERIA                 
1 43020U 98067NH  19214.88934904  .00016771  00000-0  13024-3 0  9996
2 43020  51.6430  88.5522 0001185 305.4842  54.6046 15.71932093 96966
DELLINGR (RBLE)         
1 43021U 98067NJ  19214.83970350  .00005137  00000-0  59794-4 0  9996
2 43021  51.6385 103.8628 0001404 276.7244  83.3591 15.63633374 96756
AEROCUBE 7B (OCSD B)    
1 43042U 17071F   19213.46507790  .00001751  00000-0  50945-4 0  9994
2 43042  51.6369 198.8847 0004338 320.0295  40.0371 15.41366055 92832
AEROCUBE 7C (OCSD C)    
1 43043U 17071G   19213.46504931  .00001792  00000-0  51909-4 0  9995
2 43043  51.6370 198.8988 0004615 324.1770  35.8905 15.41369051 92803
CHEFSAT                 
1 43044U 17071H   19213.96157934  .00004716  00000-0  11036-3 0  9993
2 43044  51.6373 190.3443 0004506 325.3494  34.7198 15.44116568 92960
ASGARDIA 1              
1 43049U 17071N   19214.19145745  .00001666  00000-0  48716-4 0  9998
2 43049  51.6394 194.7828 0002340 350.8788   9.2154 15.41491812 92915
ISARA                   
1 43050U 17071P   19213.92676413  .00003334  00000-0  82009-4 0  9998
2 43050  51.6365 191.5648 0002232 347.6588  12.4343 15.43622001 92949
PROPCUBE 2 (FAUNA)      
1 43052U 17071R   19213.92972343  .00001817  00000-0  51801-4 0  9991
2 43052  51.6393 195.3035 0002244 346.3957  13.6967 15.41779223 92888
CORVUS BC3              
1 43118U 18004H   19214.74707295  .00000451  00000-0  22262-4 0  9996
2 43118  97.4840 281.9506 0012165  93.9786 266.2841 15.22885847 86338
MICROMAS-2A             
1 43131U 18004W   19214.78072470  .00001040  00000-0  45599-4 0  9998
2 43131  97.4868 282.7756 0011138  95.3029 264.9479 15.24211953 86384
SPACEBEE-4              
1 43139U 18004AE  19214.77655804  .00001504  00000-0  62993-4 0  9995
2 43139  97.4887 283.3194 0010603  97.6464 262.5979 15.25075058 86407
SPACEBEE-3              
1 43140U 18004AF  19213.75551541  .00001958  00000-0  79850-4 0  9990
2 43140  97.4901 282.5805 0010460 100.5106 259.7310 15.25620837 86277
SPACEBEE-2              
1 43141U 18004AG  19214.44208269  .00002169  00000-0  87643-4 0  9998
2 43141  97.4903 283.3632 0010405  98.6037 261.6380 15.25809038 86389
SPACEBEE-1              
1 43142U 18004AH  19214.40260653  .00002281  00000-0  91464-4 0  9991
2 43142  97.4906 283.4362 0010347  98.5609 261.6802 15.26018315 86372
CICERO 7                
1 43143U 18004AJ  19213.74998586  .00000965  00000-0  42374-4 0  9994
2 43143  97.4853 281.9609 0009234 105.8077 254.4179 15.24333254 86248
GOMX-4B                 
1 43196U 18015E   19214.87871187  .00000161  00000-0  95832-5 0  9992
2 43196  97.3961 341.7960 0019236 144.8701 215.3811 15.23973542 83223
GOMX-4A                 
1 43197U 18015F   19214.74631981  .00000268  00000-0  13941-4 0  9993
2 43197  97.3970 341.6949 0019868 145.5458 324.3867 15.24068295 83210
1KUNS-PF                
1 43466U 98067NP  19214.68897514  .00014438  00000-0  13566-3 0  9992
2 43466  51.6371 105.8190 0000364  75.1014 285.0023 15.67420011 69971
UBAKUSAT                
1 43467U 98067NQ  19214.16351583  .00008645  00000-0  97106-4 0  9993
2 43467  51.6375 113.5657 0001529 225.3491 134.7379 15.63524711 69839
BATSU-CS1 (IRAZU)       
1 43468U 98067NR  19214.08077291  .00021559  00000-0  17432-3 0  9998
2 43468  51.6359 104.7222 0000513  83.4784 276.6272 15.70762134169922
CUBERRT                 
1 43546U 98067NU  19213.94611080  .00004510  00000-0  48986-4 0  9996
2 43546  51.6386 115.1124 0003501 312.7120  47.3581 15.65802155 59924
TEMPEST-D               
1 43547U 98067NV  19214.75181491  .00005386  00000-0  76178-4 0  9991
2 43547  51.6388 120.4986 0004946 298.3681  61.6813 15.58302330 59601
RAINCUBE                
1 43548U 98067NW  19214.13347665  .00008610  00000-0  10193-3 0  9998
2 43548  51.6371 118.5990 0004537 308.5151  51.5436 15.62159122 60020
HALOSAT                 
1 43549U 98067NX  19213.94720746  .00008689  00000-0  10318-3 0  9997
2 43549  51.6381 119.6198 0004613 312.1869  47.8733 15.62064226 59550
ENDUROSAT ONE           
1 43551U 98067NZ  19213.92309017  .00010125  00000-0  11156-3 0  9991
2 43551  51.6377 117.2105 0004801 320.3713  39.6931 15.63789711 59999
EQUISAT                 
1 43552U 98067PA  19213.94006417  .00008495  00000-0  99717-4 0  9999
2 43552  51.6391 118.8497 0005239 317.8183  42.2408 15.62402297 59938
